NORAD_CAT_ID,OBJECT_NAME,OBJECT_TYPE,EPOCH,MEAN_MOTION,ECCENTRICITY,INCLINATION,RA_OF_ASC_NODE,ARG_OF_PERICENTER,MEAN_ANOMALY,BSTAR,MEAN_MOTION_DOT,MEAN_MOTION_DDOT,TLE_LINE0,TLE_LINE1,TLE_LINE2,SEMIMAJOR_AXIS,PERIOD,APOGEE,PERIGEE,DECAYED
52116.0,STARLINK-3735,PAYLOAD,2023-02-10 09:05:24,15.08864143,0.0001202,53.2138,81.8682,98.5908,261.5221,0.0030458,0.00048552,0.0,0 STARLINK-3735,1 52116U 22029AE  23041.37875242  .00048552  00000-0  30458-2 0  9994,2 52116  53.2138  81.8682 0001202  98.5908 261.5221 15.08864143 51203,6917.807,95.436,540.503,538.84,0.0
52116.0,STARLINK-3735,PAYLOAD,2023-02-11 13:42:20,15.088624,0.0001274,53.2148,76.5179,114.3295,245.783,0.0014317,0.00022585,0.0,0 STARLINK-3735,1 52116U 22029AE  23042.57107375  .00022585  00000-0  14317-2 0  9996,2 52116  53.2148  76.5179 0001274 114.3295 245.7830 15.08862400 51384,6917.812,95.436,540.558,538.796,0.0
52116.0,STARLINK-3735,PAYLOAD,2023-02-12 08:46:58,15.08851601,0.000128,53.2148,72.9482,73.8726,286.2407,0.0014136,0.00022288,0.0,0 STARLINK-3735,1 52116U 22029AE  23043.36595797  .00022288  00000-0  14136-2 0  9992,2 52116  53.2148  72.9482 0001280  73.8726 286.2407 15.08851601 51501,6917.845,95.437,540.595,538.824,0.0
52116.0,STARLINK-3735,PAYLOAD,2023-02-12 18:19:17,15.08861786,9.16e-05,53.2145,71.1601,0.75,359.3493,0.0010733,0.00016845,0.0,0 STARLINK-3735,1 52116U 22029AE  23043.76339372  .00016845  00000-0  10733-2 0  9992,2 52116  53.2145  71.1601 0000916   0.7500 359.3493 15.08861786 51564,6917.814,95.436,540.312,539.045,0.0
52116.0,STARLINK-3735,PAYLOAD,2023-02-13 02:16:13,15.08842228,0.0001383,53.2164,69.6786,81.8866,278.2283,0.0006797,0.00010547,0.0,0 STARLINK-3735,1 52116U 22029AE  23044.09459972  .00010547  00000-0  67970-3 0  9997,2 52116  53.2164  69.6786 0001383  81.8866 278.2283 15.08842228 51617,6917.874,95.437,540.695,538.782,0.0
52116.0,STARLINK-3735,PAYLOAD,2023-02-13 11:48:31,15.08858975,0.0001368,53.2155,67.8916,83.3076,276.8071,0.0010072,0.00015786,0.0,0 STARLINK-3735,1 52116U 22029AE  23044.49203557  .00015786  00000-0  10072-2 0  9997,2 52116  53.2155  67.8916 0001368  83.3076 276.8071 15.08858975 51676,6917.822,95.436,540.634,538.741,0.0
52116.0,STARLINK-3735,PAYLOAD,2023-02-13 18:10:04,15.0884263,0.0001528,53.2152,66.6997,77.7613,282.355,0.00046034,7.046e-05,0.0,0 STARLINK-3735,1 52116U 22029AE  23044.75699961  .00007046  00000-0  46034-3 0  9992,2 52116  53.2152  66.6997 0001528  77.7613 282.3550 15.08842630 51711,6917.872,95.437,540.794,538.68,0.0
52116.0,STARLINK-3735,PAYLOAD,2023-02-14 02:07:00,15.08835145,0.0001237,53.2149,65.214,103.6505,256.4625,8.4754e-05,1.061e-05,0.0,0 STARLINK-3735,1 52116U 22029AE  23045.08820033  .00001061  00000-0  84754-4 0  9998,2 52116  53.2149  65.2140 0001237 103.6505 256.4625 15.08835145 51761,6917.895,95.438,540.616,538.904,0.0
52116.0,STARLINK-3735,PAYLOAD,2023-02-14 08:28:32,15.08842859,0.0001142,53.2156,64.0255,98.3326,261.7795,0.00033664,5.074e-05,0.0,0 STARLINK-3735,1 52116U 22029AE  23045.35315946  .00005074  00000-0  33664-3 0  9991,2 52116  53.2156  64.0255 0001142  98.3326 261.7795 15.08842859 51801,6917.872,95.437,540.527,538.947,0.0
52116.0,STARLINK-3735,PAYLOAD,2023-02-14 18:00:51,15.08844043,9.71e-05,53.2155,62.2416,87.666,272.4444,0.00059887,9.257e-05,0.0,0 STARLINK-3735,1 52116U 22029AE  23045.75060078  .00009257  00000-0  59887-3 0  9990,2 52116  53.2155  62.2416 0000971  87.6660 272.4444 15.08844043 51863,6917.868,95.437,540.405,539.061,0.0
52116.0,STARLINK-3735,PAYLOAD,2023-02-15 08:19:20,15.08841115,0.0001263,53.2162,59.5638,85.0476,275.066,0.00034109,5.145e-05,0.0,0 STARLINK-3735,1 52116U 22029AE  23046.34676298  .00005145  00000-0  34109-3 0  9995,2 52116  53.2162  59.5638 0001263  85.0476 275.0660 15.08841115 51954,6917.877,95.437,540.616,538.868,0.0
52116.0,STARLINK-3735,PAYLOAD,2023-02-15 11:30:06,15.08852004,8.36e-05,53.215,58.9669,100.9955,259.1131,0.0006424,9.954e-05,0.0,0 STARLINK-3735,1 52116U 22029AE  23046.47923846  .00009954  00000-0  64240-3 0  9994,2 52116  53.2150  58.9669 0000836 100.9955 259.1131 15.08852004 51979,6917.844,95.437,540.287,539.13,0.0
52116.0,STARLINK-3735,PAYLOAD,2023-02-15 17:51:37,15.08881629,5.88e-05,53.2153,57.7792,101.8954,258.2104,0.0011541,0.00018148,0.0,0 STARLINK-3735,1 52116U 22029AE  23046.74418564  .00018148  00000-0  11541-2 0  9990,2 52116  53.2153  57.7792 0000588 101.8954 258.2104 15.08881629 52010,6917.753,95.435,540.025,539.211,0.0
52116.0,STARLINK-3735,PAYLOAD,2023-02-16 00:13:10,15.08852593,0.0001194,53.2159,56.5915,101.5264,258.5862,0.00022165,3.243e-05,0.0,0 STARLINK-3735,1 52116U 22029AE  23047.00915293  .00003243  00000-0  22165-3 0  9996,2 52116  53.2159  56.5915 0001194 101.5264 258.5862 15.08852593 52051,6917.842,95.437,540.533,538.881,0.0
52116.0,STARLINK-3735,PAYLOAD,2023-02-16 09:45:29,15.08848867,0.0001028,53.2151,54.8062,101.2306,258.8801,0.00014789,2.067e-05,0.0,0 STARLINK-3735,1 52116U 22029AE  23047.40659141  .00002067  00000-0  14789-3 0  9993,2 52116  53.2151  54.8062 0001028 101.2306 258.8801 15.08848867 52119,6917.853,95.437,540.429,539.007,0.0
52116.0,STARLINK-3735,PAYLOAD,2023-02-16 17:42:25,15.0884062,0.0001174,53.2171,53.3183,89.037,271.0757,-4.6587e-05,-1.029e-05,0.0,0 STARLINK-3735,1 52116U 22029AE  23047.73779518 -.00001029  00000-0 -46587-4 0  9991,2 52116  53.2171  53.3183 0001174  89.0370 271.0757 15.08840620 52166,6917.878,95.438,540.556,538.931,0.0
52116.0,STARLINK-3735,PAYLOAD,2023-02-17 09:36:17,15.0884597,0.0001367,53.2149,50.3452,93.0871,267.0278,0.00080178,0.00012497,0.0,0 STARLINK-3735,1 52116U 22029AE  23048.40019825  .00012497  00000-0  80178-3 0  9996,2 52116  53.2149  50.3452 0001367  93.0871 267.0278 15.08845970 52269,6917.862,95.437,540.673,538.781,0.0
52116.0,STARLINK-3735,PAYLOAD,2023-02-17 17:33:13,15.08827648,0.0001696,53.2157,48.8578,82.5582,277.5603,0.00020282,2.94e-05,0.0,0 STARLINK-3735,1 52116U 22029AE  23048.73140615  .00002940  00000-0  20282-3 0  9996,2 52116  53.2157  48.8578 0001696  82.5582 277.5603 15.08827648 52312,6917.918,95.438,540.956,538.61,0.0
52116.0,STARLINK-3735,PAYLOAD,2023-02-18 06:16:19,15.08827554,0.000173,53.216,46.4787,82.9062,277.2126,0.00022197,3.245e-05,0.0,0 STARLINK-3735,1 52116U 22029AE  23049.26133173  .00003245  00000-0  22197-3 0  9992,2 52116  53.2160  46.4787 0001730  82.9062 277.2126 15.08827554 52399,6917.918,95.438,540.98,538.587,0.0
52116.0,STARLINK-3735,PAYLOAD,2023-02-19 09:17:51,15.08864867,0.0001539,53.2161,41.4241,76.1649,283.9515,0.0010081,0.00015803,0.0,0 STARLINK-3735,1 52116U 22029AE  23050.38740686  .00015803  00000-0  10081-2 0  9991,2 52116  53.2161  41.4241 0001539  76.1649 283.9515 15.08864867 52566,6917.804,95.436,540.734,538.605,0.0
52116.0,STARLINK-3735,PAYLOAD,2023-02-20 02:47:06,15.08856157,0.0001409,53.2158,38.1525,68.4335,291.6807,0.00051449,7.913e-05,0.0,0 STARLINK-3735,1 52116U 22029AE  23051.11604555  .00007913  00000-0  51449-3 0  9994,2 52116  53.2158  38.1525 0001409  68.4335 291.6807 15.08856157 52677,6917.831,95.437,540.671,538.721,0.0
52116.0,STARLINK-3735,PAYLOAD,2023-02-20 07:33:15,15.08863201,0.0001347,53.2164,37.2607,81.2228,278.8917,0.00081863,0.00012773,0.0,0 STARLINK-3735,1 52116U 22029AE  23051.31476266  .00012773  00000-0  81863-3 0  9995,2 52116  53.2164  37.2607 0001347  81.2228 278.8917 15.08863201 52701,6917.809,95.436,540.606,538.743,0.0
52116.0,STARLINK-3735,PAYLOAD,2023-02-20 15:30:11,15.08834959,0.0001794,53.2164,35.7739,84.6847,275.4349,0.001391,0.00021916,0.0,0 STARLINK-3735,1 52116U 22029AE  23051.64596601  .00021916  00000-0  13910-2 0  9993,2 52116  53.2164  35.7739 0001794  84.6847 275.4349 15.08834959 52755,6917.896,95.438,541.002,538.52,0.0
52116.0,STARLINK-3735,PAYLOAD,2023-02-21 02:37:53,15.08837711,0.0001582,53.2181,33.6932,96.5165,263.6007,0.00075764,0.0001179,0.0,0 STARLINK-3735,1 52116U 22029AE  23052.10964621  .00011790  00000-0  75764-3 0  9991,2 52116  53.2181  33.6932 0001582  96.5165 263.6007 15.08837711 52823,6917.887,95.438,540.847,538.658,0.0
52116.0,STARLINK-3735,PAYLOAD,2023-02-21 08:59:25,15.08848437,0.000159,53.217,32.5032,93.8787,266.2387,0.00053827,8.291e-05,0.0,0 STARLINK-3735,1 52116U 22029AE  23052.37460335  .00008291  00000-0  53827-3 0  9991,2 52116  53.2170  32.5032 0001590  93.8787 266.2387 15.08848437 52860,6917.855,95.437,540.82,538.62,0.0
52116.0,STARLINK-3735,PAYLOAD,2023-02-21 21:42:31,15.08845418,0.0002207,53.2166,30.124,84.5507,275.5737,0.00037626,5.706e-05,0.0,0 STARLINK-3735,1 52116U 22029AE  23052.90452835  .00005706  00000-0  37626-3 0  9993,2 52116  53.2166  30.1240 0002207  84.5507 275.5737 15.08845418 52940,6917.864,95.437,541.256,538.202,0.0
52116.0,STARLINK-3735,PAYLOAD,2023-02-22 02:28:40,15.08833136,0.0002019,53.217,29.2318,87.9611,272.1612,8.6333e-05,1.086e-05,0.0,0 STARLINK-3735,1 52116U 22029AE  23053.10325078  .00001086  00000-0  86333-4 0  9991,2 52116  53.2170  29.2318 0002019  87.9611 272.1612 15.08833136 52976,6917.901,95.438,541.163,538.37,0.0
52116.0,STARLINK-3735,PAYLOAD,2023-02-22 07:14:50,15.08834808,0.0001574,53.2175,28.3417,91.2463,268.871,2.8816e-05,1.71e-06,0.0,0 STARLINK-3735,1 52116U 22029AE  23053.30197044  .00000171  00000-0  28816-4 0  9999,2 52116  53.2175  28.3417 0001574  91.2463 268.8710 15.08834808 53002,6917.896,95.438,540.85,538.672,0.0
52116.0,STARLINK-3735,PAYLOAD,2023-02-23 07:05:37,15.08842494,0.0001433,53.2164,23.8804,85.7883,274.3273,0.00032264,4.851e-05,0.0,0 STARLINK-3735,1 52116U 22029AE  23054.29557289  .00004851  00000-0  32264-3 0  9999,2 52116  53.2164  23.8804 0001433  85.7883 274.3273 15.08842494 53150,6917.873,95.437,540.729,538.746,0.0
52116.0,STARLINK-3735,PAYLOAD,2023-02-24 06:56:23,15.08856719,0.000117,53.2162,19.4167,92.7704,267.3422,0.0005039,7.744e-05,0.0,0 STARLINK-3735,1 52116U 22029AE  23055.28916608  .00007744  00000-0  50390-3 0  9997,2 52116  53.2162  19.4167 0001170  92.7704 267.3422 15.08856719 53309,6917.829,95.436,540.504,538.885,0.0
